IRIDIUM 45 [+]          
1 25104U 97082A   17346.11111645  .00000113  00000-0  33453-4 0  9996
2 25104  86.3979 212.8364 0002842  84.3847 275.7672 14.34221861 45874
